CUTE-1 (CO-55)          
1 27844U 03031E   23288.56959873  .00000776  00000+0  36445-3 0  9991
2 27844  98.6806 294.0869 0010595 132.4925 227.7150 14.22918089 52856
CUBESAT XI-IV (CO-57)   
1 27848U 03031J   23288.55247186  .00000657  00000+0  31425-3 0  9992
2 27848  98.6841 294.4373 0010253 146.7901 213.3922 14.22409620 52614
CUBESAT XI-V            
1 28895U 05043F   23288.34253550  .00003674  00000+0  67468-3 0  9997
2 28895  98.1708  59.6336 0017037  56.0402 304.2418 14.66217324958419
CUTE-1.7+APD II (CO-65) 
1 32785U 08021C   23288.44915663  .00007900  00000+0  75502-3 0  9994
2 32785  97.7213 252.0024 0013782  68.2886 291.9799 14.93447916838766
AAUSAT-II               
1 32788U 08021F   23288.47398546  .00018256  00000+0  12196-2 0  9990
2 32788  97.5735 265.5195 0005059 321.5982  38.4885 15.07036185841205
DELFI-C3 (DO-64)        
1 32789U 08021G   23288.36296159  .00336358  00000+0  32236-2 0  9999
2 32789  97.2846 310.7611 0004990  91.3940 268.7891 15.65586186845968
SEEDS II (CO-66)        
1 32791U 08021J   23288.41473073  .00011966  00000+0  10016-2 0  9997
2 32791  97.6723 257.3461 0012529  21.5508 338.6240 14.98540381839656
SWISSCUBE               
1 35932U 09051B   23288.57250203  .00002212  00000+0  49100-3 0  9997
2 35932  98.5003 161.6937 0007681   5.6645 354.4639 14.58082343746751
BEESAT-1                
1 35933U 09051C   23288.61224376  .00001943  00000+0  43388-3 0  9997
2 35933  98.4931 162.9360 0006192  19.9028 340.2410 14.57945703746830
ITUPSAT1                
1 35935U 09051E   23288.59449181  .00001844  00000+0  42092-3 0  9990
2 35935  98.5036 162.8170 0008564  21.7508 338.4052 14.56969728746491
TISAT 1                 
1 36799U 10035E   23288.59749350  .00009023  00000+0  77181-3 0  9998
2 36799  98.1149 162.9395 0009019 300.7584  59.2749 14.97826318720249
M-CUBED & EXP-1 PRIME   
1 37855U 11061F   23288.59408323  .00043721  00000+0  11068-2 0  9998
2 37855 101.7059 319.0000 0102205  29.6501 331.0467 15.34351062654974
AEROCUBE 4.5A           
1 38767U 12048K   23288.39837979  .00013898  00000+0  90840-3 0  9996
2 38767  64.6657  19.7360 0106901 111.6744 249.5798 15.03399030223446
AEROCUBE 4.5B           
1 38768U 12048L   23288.47593822  .00016732  00000+0  88763-3 0  9993
2 38768  64.6631 318.8915 0085645 102.4996 258.5724 15.12333121224131
STRAND-1                
1 39090U 13009E   23288.50505878  .00000770  00000+0  28120-3 0  9994
2 39090  98.3848 118.5668 0007766 266.0761  93.9538 14.35729811556983
BRITE-AUSTRIA           
1 39091U 13009F   23288.51480589  .00000515  00000+0  19337-3 0  9994
2 39091  98.3882 117.8209 0009221 273.7165  86.2966 14.35574663557014
BEESAT-3                
1 39135U 13015F   23288.38729729  .00142320  00000+0  17030-2 0  9995
2 39135  64.8498 289.5417 0012450 271.0811  88.8910 15.60191942580566
BEESAT-2                
1 39136U 13015G   23288.44563547  .00100568  00000+0  15361-2 0  9990
2 39136  64.8625 303.7205 0023317 271.5459  88.3013 15.53564154580267
NEE-01 PEGASO           
1 39151U 13018B   23288.27834387  .00005287  00000+0  64620-3 0  9999
2 39151  98.0189  38.7698 0016828 119.4652 240.8243 14.83591546565487
ESTCUBE 1               
1 39161U 13021C   23288.25999249  .00003679  00000+0  55537-3 0  9991
2 39161  97.8609 357.0895 0007985 308.8147  51.2349 14.74888151560820
POPACS 1                
1 39268U 13055D   23288.13280460  .00062148  00000+0  12893-2 0  9994
2 39268  80.9884  69.6910 0476457 153.4271 209.2245 14.74583869524060
POPACS 2                
1 39269U 13055E   23288.58831480  .00019324  00000+0  48271-3 0  9996
2 39269  81.0047 143.9772 0590732 346.7438  11.8773 14.46842023519966
POPACS 3                
1 39270U 13055F   23287.98707736  .00012381  00000+0  35136-3 0  9999
2 39270  81.0135 187.9226 0653853 110.2694 256.9986 14.30762113497686
ZACUBE-1 (TSHEPISOSAT)  
1 39417U 13066B   23288.40334227  .00006302  00000+0  70732-3 0  9990
2 39417  97.7000 246.0189 0051843 251.3564 108.2019 14.86135423535041
WNISAT-1                
1 39423U 13066H   23288.55491884  .00001528  00000+0  30267-3 0  9990
2 39423  97.6871 137.6866 0173293  60.1296 301.6997 14.54463938524729
TRITON-1                
1 39427U 13066M   23288.53837601  .00003763  00000+0  55734-3 0  9992
2 39427  97.8347 209.9111 0107273 150.9434 209.7803 14.71829474530053
DELFI-N3XT              
1 39428U 13066N   23288.52502251  .00006299  00000+0  87787-3 0  9992
2 39428  97.8320 209.1829 0108341 161.3316 199.1915 14.74056138529859
GOMX-1                  
1 39430U 13066Q   23288.56633510  .00004555  00000+0  78455-3 0  9997
2 39430  97.7605 172.6247 0142965 312.8519  46.0744 14.62489688526947
CUBEBUG-2 (LO-74)       
1 39440U 13066AA  23288.59169519  .00007952  00000+0  99826-3 0  9993
2 39440  97.7838 233.5415 0073837 356.9581   3.1172 14.80469651531964
NEE-02 KRYSAOR          
1 39441U 13066AB  23288.33284142  .00005900  00000+0  78121-3 0  9992
2 39441  97.7941 229.8921 0077709  15.7045 344.6550 14.78165327531599
FUNCUBE-1 (AO-73)       
1 39444U 13066AE  23288.42095743  .00008182  00000+0  87399-3 0  9994
2 39444  97.6862 248.7070 0050062 234.5834 125.0702 14.88118027533518
UWE-3                   
1 39446U 13066AG  23288.30058609  .00007464  00000+0  88986-3 0  9998
2 39446  97.7487 239.3615 0062615 307.2503  52.3009 14.83165174532222
BRITE-CA1 (TORONTO)     
1 40020U 14033L   23288.38059658  .00003290  00000+0  54662-3 0  9993
2 40020  97.8441  69.8981 0085235 155.9755 204.5464 14.68390168498789
DUCHIFAT-1              
1 40021U 14033M   23288.44670334  .00014593  00000+0  11678-2 0  9998
2 40021  98.0686 256.5209 0010206 210.9925 149.0697 15.00255522507209
NANOSATC-BR1            
1 40024U 14033Q   23288.38882760  .00011353  00000+0  96930-3 0  9998
2 40024  98.0435 246.7477 0008047 237.5149 122.5295 14.97834364506396
QB50P1                  
1 40025U 14033R   23288.57998746  .00008196  00000+0  74692-3 0  9994
2 40025  98.0088 237.6619 0009168 253.4226 106.5987 14.95374126506120
QB50P2                  
1 40032U 14033Y   23288.57183774  .00008155  00000+0  76034-3 0  9996
2 40032  97.9761 230.8155 0008728 250.7489 109.2786 14.94478003505940
PERSEUS-M2              
1 40037U 14033AD  23288.59014890  .00003241  00000+0  35033-3 0  9990
2 40037  97.9091 214.0403 0012128 286.9681  73.0206 14.88976281505269
PERSEUS-M1              
1 40039U 14033AF  23288.57087320  .00003198  00000+0  34837-3 0  9990
2 40039  97.8929 210.7340 0011941 286.7484  73.2422 14.88664214505121
POLYITAN-1              
1 40042U 14033AJ  23288.36576479  .00012232  00000+0  10745-2 0  9999
2 40042  98.0218 239.7014 0010145 243.2055 116.8129 14.96689627506005
TIGRISAT                
1 40043U 14033AK  23288.45210310  .00003462  00000+0  48330-3 0  9996
2 40043  97.6735  97.5124 0057672  24.2892 336.1018 14.77142677501163
AEROCUBE 6A             
1 40045U 14033AM  23288.49862326  .00005971  00000+0  77751-3 0  9998
2 40045  97.6592 107.5683 0053884   7.2957 352.9028 14.79942112501657
AEROCUBE 6B             
1 40046U 14033AN  23288.06390271  .00007258  00000+0  92712-3 0  9991
2 40046  97.6546 105.6787 0052472   5.3055 354.8703 14.80724097501384
UKUBE-1                 
1 40074U 14037F   23288.48061821  .00007721  00000+0  81282-3 0  9993
2 40074  98.3353 199.3172 0004781 136.5610 223.5983 14.89675204502153
BRITE-PL2 (HEWELIUSZ)   
1 40119U 14049B   23288.50298580  .00003828  00000+0  43007-3 0  9990
2 40119  97.8837  24.6794 0017775  92.6888 267.6363 14.87217929496045
GRIFEX                  
1 40379U 15003D   23288.46527487  .00082062  00000+0  11483-2 0  9994
2 40379  99.0834 255.4488 0059637 209.0854 150.7068 15.54412708481964
CP10 (EXOCUBE)          
1 40380U 15003E   23288.40595885  .00049062  00000+0  10721-2 0  9994
2 40380  99.0895 242.8620 0079720 252.6727 106.5782 15.40644269481178
EXACTVIEW 9             
1 40936U 15052G   23287.48298049  .00004810  00000+0  54676-3 0  9994
2 40936   6.0046 314.4567 0010154 186.6847 173.3146 14.79135349434980
AEROCUBE 5C             
1 40965U 15058B   23288.61497368  .00003491  00000+0  37531-3 0  9998
2 40965  64.7744  33.8871 0169397  28.0152 332.9944 14.80226193220667
AEROCUBE 7              
1 40966U 15058C   23288.60781932  .00004349  00000+0  45324-3 0  9993
2 40966  64.7732  29.4863 0166520  27.6779 333.3068 14.81364786220699
GALASSIA                
1 41170U 15077E   23288.46917716  .00150372  00000+0  18371-2 0  9996
2 41170  14.9867  25.4522 0005354  42.8389 317.2354 15.58473895434710
VELOX-II                
1 41171U 15077F   23288.27662904  .00042838  00000+0  12306-2 0  9991
2 41171  14.9898 151.8447 0004447  88.0798 272.0035 15.33865850433625
HORYU-4                 
1 41340U 16012D   23288.59183939  .00011743  00000+0  69789-3 0  9999
2 41340  31.0019 127.7819 0011714   9.4351 350.6506 15.10004816420927
E-ST@R-II               
1 41459U 16025D   23288.56680759  .00056296  00000+0  12498-2 0  9999
2 41459  98.1680 142.7612 0089680  38.3247 322.4323 15.39286742411358
RAVAN                   
1 41849U 16067B   23288.41706259  .00012833  00000+0  83785-3 0  9993
2 41849  98.0490  88.1504 0015817 140.8229 219.4146 15.07888610378876
CELTEE 1                
1 41850U 16067C   23288.38025971  .00009066  00000+0  67922-3 0  9995
2 41850  98.0785  81.3486 0000469 307.5418  52.5763 15.02943367378460
OPTICUBE 04             
1 41851U 16067D   23288.39617131  .00004666  00000+0  37324-3 0  9996
2 41851  98.0614  78.9488 0017810 158.8913 201.3048 15.00604270378354
AEROCUBE 8D             
1 41852U 16067E   23288.38033880  .00010551  00000+0  77726-3 0  9999
2 41852  98.0826  80.6027 0005402 206.8692 153.2253 15.03526738378416
AEROCUBE 8C             
1 41853U 16067F   23288.38142264  .00010609  00000+0  78299-3 0  9997
2 41853  98.0625  79.8231 0009031 143.6999 216.4839 15.03430917378405
